{"type": "FeatureCollection", "features": [ {"type": "Feature", "properties": {"norad_id": 30121, "name": "FENGYUN 1C DEB", "group": "fengyun-1c-debris", "lat": -69.0000762726694, "lon": 41.75529510121993, "alt_km": 777.1783076027914, "timestamp": "2025-12-12T07:43:20.787381+00:00", "meta": {"OBJECT_NAME": "FENGYUN 1C DEB", "OBJECT_ID": "1999-025SA", "EPOCH": "2025-12-12T00:01:09.830208", "MEAN_MOTION": 14.39981575, "ECCENTRICITY": 0.00313915, "INCLINATION": 102.1659, "RA_OF_ASC_NODE": 7.108, "ARG_OF_PERICENTER": 166.9953, "MEAN_ANOMALY": 256.9771, "EPHEMERIS_TYPE": 0, "CLASSIFICATION_TYPE": "U", "NORAD_CAT_ID": 30121, "ELEMENT_SET_NO": 999, "REV_AT_EPOCH": 97529, "BSTAR": 0.0032147825, "MEAN_MOTION_DOT": 0.00010123, "MEAN_MOTION_DDOT": 0}, "tle": {"line1": "1 30121U 99025SA  25346.00080822  .00010123  00000+0  32148-2 0  9998", "line2": "2 30121 102.1659   7.1080 0031391 166.9953 256.9771 14.39981575975296"}}, "geometry": {"type": "Point", "coordinates": [41.75529510121993, -69.0000762726694]}}, {"type": "Feature", "properties": {"norad_id": 30123, "name": "FENGYUN 1C DEB", "group": "fengyun-1c-debris", "lat": 81.20823209951408, "lon": -124.93077240367067, "alt_km": 632.2345879334098, "timestamp": "2025-12-12T07:43:20.787391+00:00", "meta": {"OBJECT_NAME": "FENGYUN 1C DEB", "OBJECT_ID": "1999-025SC", "EPOCH": "2025-12-11T02:42:35.772192", "MEAN_MOTION": 14.25947004, "ECCENTRICITY": 0.02306037, "INCLINATION": 96.9258, "RA_OF_ASC_NODE": 285.9157, "ARG_OF_PERICENTER": 89.7443, "MEAN_ANOMALY": 273.0163, "EPHEMERIS_TYPE": 0, "CLASSIFICATION_TYPE": "U", "NORAD_CAT_ID": 30123, "ELEMENT_SET_NO": 999, "REV_AT_EPOCH": 97224, "BSTAR": 0.0021292323, "MEAN_MOTION_DOT": 6.688e-05, "MEAN_MOTION_DDOT": 0}, "tle": {"line1": "1 30123U 99025SC  25345.11291403  .00006688  00000+0  21292-2 0  9999", "line2": "2 30123  96.9258 285.9157 0230603  89.7443 273.0163 14.25947004972248"}}, "geometry": {"type": "Point", "coordinates": [-124.93077240367067, 81.20823209951408]}}, {"type": "Feature", "properties": {"norad_id": 30124, "name": "FENGYUN 1C DEB", "group": "fengyun-1c-debris", "lat": 23.67722218756794, "lon": 36.134237455574024, "alt_km": 830.0462008780014, "timestamp": "2025-12-12T07:43:20.787401+00:00", "meta": {"OBJECT_NAME": "FENGYUN 1C DEB", "OBJECT_ID": "1999-025SD", "EPOCH": "2025-12-11T15:20:22.139232", "MEAN_MOTION": 14.14223922, "ECCENTRICITY": 0.0143429, "INCLINATION": 99.1315, "RA_OF_ASC_NODE": 39.4809, "ARG_OF_PERICENTER": 108.912, "MEAN_ANOMALY": 43.3634, "EPHEMERIS_TYPE": 0, "CLASSIFICATION_TYPE": "U", "NORAD_CAT_ID": 30124, "ELEMENT_SET_NO": 999, "REV_AT_EPOCH": 96899, "BSTAR": 0.001298394, "MEAN_MOTION_DOT": 2.69e-05, "MEAN_MOTION_DDOT": 0}, "tle": {"line1": "1 30124U 99025SD  25345.63914513  .00002690  00000+0  12984-2 0  9998", "line2": "2 30124  99.1315  39.4809 0143429 108.9120  43.3634 14.14223922968991"}}, "geometry": {"type": "Point", "coordinates": [36.134237455574024, 23.67722218756794]}}, {"type": "Feature", "properties": {"norad_id": 30125, "name": "FENGYUN 1C DEB", "group": "fengyun-1c-debris", "lat": 12.262669951280191, "lon": -92.96309283576188, "alt_km": 1063.7653112068174, "timestamp": "2025-12-12T07:43:20.787411+00:00", "meta": {"OBJECT_NAME": "FENGYUN 1C DEB", "OBJECT_ID": "1999-025SE", "EPOCH": "2025-12-11T12:39:36.082080", "MEAN_MOTION": 14.22643284, "ECCENTRICITY": 0.03423561, "INCLINATION": 98.7235, "RA_OF_ASC_NODE": 84.3364, "ARG_OF_PERICENTER": 347.707, "MEAN_ANOMALY": 74.3579, "EPHEMERIS_TYPE": 0, "CLASSIFICATION_TYPE": "U", "NORAD_CAT_ID": 30125, "ELEMENT_SET_NO": 999, "REV_AT_EPOCH": 96904, "BSTAR": 0.0011774867, "MEAN_MOTION_DOT": 4.765e-05, "MEAN_MOTION_DDOT": 0}, "tle": {"line1": "1 30125U 99025SE  25345.52750095  .00004765  00000+0  11775-2 0  9992", "line2": "2 30125  98.7235  84.3364 0342356 347.7070  74.3579 14.22643284969045"}}, "geometry": {"type": "Point", "coordinates": [-92.96309283576188, 12.262669951280191]}}, {"type": "Feature", "properties": {"norad_id": 30127, "name": "FENGYUN 1C DEB", "group": "fengyun-1c-debris", "lat": -14.363441710816536, "lon": 20.72821408915752, "alt_km": 794.2696692571171, "timestamp": "2025-12-12T07:43:20.787422+00:00", "meta": {"OBJECT_NAME": "FENGYUN 1C DEB", "OBJECT_ID": "1999-025SG", "EPOCH": "2025-12-11T00:46:11.818272", "MEAN_MOTION": 14.37951525, "ECCENTRICITY": 0.00852946, "INCLINATION": 98.2073, "RA_OF_ASC_NODE": 201.6141, "ARG_OF_PERICENTER": 84.1508, "MEAN_ANOMALY": 276.9395, "EPHEMERIS_TYPE": 0, "CLASSIFICATION_TYPE": "U", "NORAD_CAT_ID": 30127, "ELEMENT_SET_NO": 999, "REV_AT_EPOCH": 97211, "BSTAR": 0.0035457649, "MEAN_MOTION_DOT": 0.0001115, "MEAN_MOTION_DDOT": 0}, "tle": {"line1": "1 30127U 99025SG  25345.03208123  .00011150  00000+0  35458-2 0  9990", "line2": "2 30127  98.2073 201.6141 0085294  84.1508 276.9395 14.37951525972116"}}, "geometry": {"type": "Point", "coordinates": [20.72821408915752, -14.363441710816536]}}, {"type": "Feature", "properties": {"norad_id": 30128, "name": "FENGYUN 1C DEB", "group": "fengyun-1c-debris", "lat": 20.192251907273565, "lon": 167.7266975364419, "alt_km": 674.3270394912734, "timestamp": "2025-12-12T07:43:20.787432+00:00", "meta": {"OBJECT_NAME": "FENGYUN 1C DEB", "OBJECT_ID": "1999-025SH", "EPOCH": "2025-12-11T11:45:30.602592", "MEAN_MOTION": 14.46075236, "ECCENTRICITY": 0.01074652, "INCLINATION": 96.9804, "RA_OF_ASC_NODE": 344.4586, "ARG_OF_PERICENTER": 128.7982, "MEAN_ANOMALY": 22.2375, "EPHEMERIS_TYPE": 0, "CLASSIFICATION_TYPE": "U", "NORAD_CAT_ID": 30128, "ELEMENT_SET_NO": 999, "REV_AT_EPOCH": 97293, "BSTAR": 0.0046977831, "MEAN_MOTION_DOT": 0.0001801, "MEAN_MOTION_DDOT": 0}, "tle": {"line1": "1 30128U 99025SH  25345.48993753  .00018010  00000+0  46978-2 0  9991", "line2": "2 30128  96.9804 344.4586 0107465 128.7982  22.2375 14.46075236972935"}}, "geometry": {"type": "Point", "coordinates": [167.7266975364419, 20.192251907273565]}}, {"type": "Feature", "properties": {"norad_id": 30129, "name": "FENGYUN 1C DEB", "group": "fengyun-1c-debris", "lat": -4.2427519575568695, "lon": 107.62576869483621, "alt_km": 890.6356318846592, "timestamp": "2025-12-12T07:43:20.787443+00:00", "meta": {"OBJECT_NAME": "FENGYUN 1C DEB", "OBJECT_ID": "1999-025SJ", "EPOCH": "2025-12-11T14:35:15.213408", "MEAN_MOTION": 14.01574564, "ECCENTRICITY": 0.01886738, "INCLINATION": 98.0273, "RA_OF_ASC_NODE": 287.5967, "ARG_OF_PERICENTER": 95.6023, "MEAN_ANOMALY": 86.0633, "EPHEMERIS_TYPE": 0, "CLASSIFICATION_TYPE": "U", "NORAD_CAT_ID": 30129, "ELEMENT_SET_NO": 999, "REV_AT_EPOCH": 96462, "BSTAR": 0.00071882674, "MEAN_MOTION_DOT": 1.236e-05, "MEAN_MOTION_DDOT": 0}, "tle": {"line1": "1 30129U 99025SJ  25345.60781497  .00001236  00000+0  71883-3 0  9992", "line2": "2 30129  98.0273 287.5967 0188673  95.6023  86.0633 14.01574564964628"}}, "geometry": {"type": "Point", "coordinates": [107.62576869483621, -4.2427519575568695]}}, {"type": "Feature", "properties": {"norad_id": 30131, "name": "FENGYUN 1C DEB", "group": "fengyun-1c-debris", "lat": -42.658190273675544, "lon": -110.3240222306507, "alt_km": 800.6994166236354, "timestamp": "2025-12-12T07:43:20.787453+00:00", "meta": {"OBJECT_NAME": "FENGYUN 1C DEB", "OBJECT_ID": "1999-025SL", "EPOCH": "2025-12-11T05:27:51.354144", "MEAN_MOTION": 14.21158999, "ECCENTRICITY": 0.00829374, "INCLINATION": 99.0743, "RA_OF_ASC_NODE": 77.0204, "ARG_OF_PERICENTER": 163.0793, "MEAN_ANOMALY": 224.8412, "EPHEMERIS_TYPE": 0, "CLASSIFICATION_TYPE": "U", "NORAD_CAT_ID": 30131, "ELEMENT_SET_NO": 999, "REV_AT_EPOCH": 96667, "BSTAR": 0.0041312482, "MEAN_MOTION_DOT": 9.266e-05, "MEAN_MOTION_DDOT": 0}, "tle": {"line1": "1 30131U 99025SL  25345.22767771  .00009266  00000+0  41312-2 0  9996", "line2": "2 30131  99.0743  77.0204 0082937 163.0793 224.8412 14.21158999966676"}}, "geometry": {"type": "Point", "coordinates": [-110.3240222306507, -42.658190273675544]}}, {"type": "Feature", "properties": {"norad_id": 30132, "name": "FENGYUN 1C DEB", "group": "fengyun-1c-debris", "lat": -69.53634057279481, "lon": 92.98782800523033, "alt_km": 990.7328401410532, "timestamp": "2025-12-12T07:43:20.787464+00:00", "meta": {"OBJECT_NAME": "FENGYUN 1C DEB", "OBJECT_ID": "1999-025SM", "EPOCH": "2025-12-11T20:19:54.548832", "MEAN_MOTION": 13.94848717, "ECCENTRICITY": 0.01056508, "INCLINATION": 99.5774, "RA_OF_ASC_NODE": 299.3964, "ARG_OF_PERICENTER": 52.1134, "MEAN_ANOMALY": 338.1635, "EPHEMERIS_TYPE": 0, "CLASSIFICATION_TYPE": "U", "NORAD_CAT_ID": 30132, "ELEMENT_SET_NO": 999, "REV_AT_EPOCH": 96077, "BSTAR": 0.00056807126, "MEAN_MOTION_DOT": 7.52e-06, "MEAN_MOTION_DDOT": 0}, "tle": {"line1": "1 30132U 99025SM  25345.84715913  .00000752  00000+0  56807-3 0  9993", "line2": "2 30132  99.5774 299.3964 0105650  52.1134 338.1635 13.94848717960777"}}, "geometry": {"type": "Point", "coordinates": [92.98782800523033, -69.53634057279481]}}, {"type": "Feature", "properties": {"norad_id": 30133, "name": "FENGYUN 1C DEB", "group": "fengyun-1c-debris", "lat": 60.129999081389336, "lon": -12.185221696530135, "alt_km": 914.2358819598849, "timestamp": "2025-12-12T07:43:20.787474+00:00", "meta": {"OBJECT_NAME": "FENGYUN 1C DEB", "OBJECT_ID": "1999-025SN", "EPOCH": "2025-12-12T00:53:54.455712", "MEAN_MOTION": 14.06666372, "ECCENTRICITY": 0.0085553, "INCLINATION": 98.3246, "RA_OF_ASC_NODE": 152.7835, "ARG_OF_PERICENTER": 262.4828, "MEAN_ANOMALY": 217.7978, "EPHEMERIS_TYPE": 0, "CLASSIFICATION_TYPE": "U", "NORAD_CAT_ID": 30133, "ELEMENT_SET_NO": 999, "REV_AT_EPOCH": 96368, "BSTAR": 0.002243278, "MEAN_MOTION_DOT": 3.809e-05, "MEAN_MOTION_DDOT": 0}, "tle": {"line1": "1 30133U 99025SN  25346.03743583  .00003809  00000+0  22433-2 0  9993", "line2": "2 30133  98.3246 152.7835 0085553 262.4828 217.7978 14.06666372963687"}}, "geometry": {"type": "Point", "coordinates": [-12.185221696530135, 60.129999081389336]}}]}